FENGYUN 1C DEB
1 36695U 99025DZR 22086.28149443  .00000400  00000+0  97598-4 0  9992
2 36695  98.1830 108.7183 0272507 278.6709  78.3701 14.38279623700389
FENGYUN 1C DEB
1 36696U 99025DZS 22085.81766175  .00002241  00000+0  11028-2 0  9995
2 36696  98.9362  45.0826 0027936 296.2023  63.6280 14.18443996450457
FENGYUN 1C DEB
1 36697U 99025DZT 22086.66525039  .00006455  00000+0  62443-3 0  9991
2 36697  98.7917 233.9845 0159218 252.9894 115.5136 14.84096497467341
FENGYUN 1C DEB
1 36699U 99025DZV 22086.87831800  .00000319  00000+0  15663-3 0  9997
2 36699  98.5560 105.4989 0098930 113.5737 247.5869 14.21591092540475
FENGYUN 1C DEB
1 36701U 99025DZX 22085.44706718  .00001671  00000+0  17514-2 0  9990
2 36701 102.7443 321.3806 0283760  68.0027 295.0993 13.61072216426134
FENGYUN 1C DEB
1 36702U 99025DZY 22083.34340986  .00006594  00000+0  24768-2 0  9997
2 36702  98.4384 126.5225 0113757 102.1443 259.2509 14.28343818729145
FENGYUN 1C DEB
1 36703U 99025DZZ 22082.72438766  .00002160  00000+0  13130-2 0  9999
2 36703  97.8261  49.2319 0123724 302.6865  56.2421 14.03373638390955
FENGYUN 1C DEB
1 36707U 99025EAD 22086.41813782  .00000802  00000+0  46243-3 0  9991
2 36707  98.8880 134.3868 0052685  18.8108 341.4994 14.11300435449138
FENGYUN 1C DEB
1 36710U 99025EAG 22085.41974184  .00001560  00000+0  56158-3 0  9996
2 36710  98.5076 145.4933 0085312 291.7173  67.4945 14.33120456454212
FENGYUN 1C DEB
1 36711U 99025EAH 22086.35182669  .00002233  00000+0  10780-2 0  9998
2 36711 100.8089 137.5862 0148341 279.4540  78.9886 14.14426527449885
FENGYUN 1C DEB
1 36712U 99025EAJ 22086.11874977  .00010415  00000+0  20545-2 0  9994
2 36712  98.9454  68.3562 0054284  80.3047 280.4278 14.61730896395985
FENGYUN 1C DEB
1 36713U 99025EAK 22085.77700553  .00008621  00000+0  99405-3 0  9992
2 36713  98.5216 265.2356 0212900 216.5877 142.0628 14.70938527764895
FENGYUN 1C DEB
1 36714U 99025EAL 22086.43138067  .00001148  00000+0  58759-3 0  9996
2 36714  98.7756 153.7498 0033060  22.8430 337.4207 14.17207500698256
FENGYUN 1C DEB
1 36716U 99025EAN 22086.49183956  .00000111  00000+0  12190-3 0  9999
2 36716  99.2124   6.9147 0150188 276.0899  82.3163 13.87057675441217
FENGYUN 1C DEB
1 36719U 99025EAR 22085.74078756  .00001691  00000+0  77388-3 0  9994
2 36719  98.4135 257.4041 0106619 124.1975 236.9363 14.19668417450168
FENGYUN 1C DEB
1 36724U 99025EAW 22085.26848275  .00002713  00000+0  14743-2 0  9999
2 36724  99.4436  16.4408 0132688  32.6318 121.3973 14.08819605382633
FENGYUN 1C DEB
1 36729U 99025EBB 22086.83130221  .00000400  00000+0  25531-3 0  9992
2 36729  98.6563 104.2384 0048397 137.3549 223.1394 14.08324507683916
FENGYUN 1C DEB
1 36730U 99025EBC 22085.86065321  .00006871  00000+0  19041-2 0  9990
2 36730  99.6533  53.4980 0035719   2.5500  26.1504 14.46589184533001
FENGYUN 1C DEB
1 36731U 99025EBD 22086.10181882  .00002630  00000+0  92873-3 0  9994
2 36731  99.1278  37.1777 0048596 149.3396 211.0643 14.34954214690512
FENGYUN 1C DEB
1 36732U 99025EBE 22086.03707107  .00009763  00000+0  90119-3 0  9996
2 36732  98.9485  10.4211 0136802 350.9014   8.9722 14.87974144713342
FENGYUN 1C DEB
1 36733U 99025EBF 22087.10962636  .00001135  00000+0  80627-3 0  9994
2 36733  99.2533  36.4710 0153248 244.0042 114.5266 13.94286657636242
FENGYUN 1C DEB
1 36734U 99025EBG 22085.92824404  .00001776  00000+0  97103-3 0  9991
2 36734  99.1088  83.1563 0045055 112.8045 247.7895 14.12805297634998
FENGYUN 1C DEB
1 36735U 99025EBH 22086.67772162  .00002329  00000+0  74790-3 0  9990
2 36735  99.1398  60.4572 0094256 205.3269 154.3281 14.37973145749291
FENGYUN 1C DEB
1 36736U 99025EBJ 22086.87863932  .00001514  00000+0  81819-3 0  9994
2 36736  98.8972 148.3166 0071009  58.7183 302.0918 14.12836593693999
FENGYUN 1C DEB
1 36738U 99025EBL 22085.42068248  .00004101  00000+0  13388-2 0  9993
2 36738 100.7895 330.9531 0033613 156.0547 204.2204 14.39038402276000
FENGYUN 1C DEB
1 36741U 99025EBP 22085.84403177  .00002871  00000+0  14762-2 0  9996
2 36741  98.4224 115.1648 0112988 266.6170  92.2074 14.12760574382111
FENGYUN 1C DEB
1 36743U 99025EBR 22078.34919269  .00001210  00000+0  60362-3 0  9993
2 36743  98.7633 126.1652 0055241   1.8124 358.3241 14.17977638413385
FENGYUN 1C DEB
1 36986U 99025EBS 22087.03670808  .00001641  00000+0  10458-2 0  9999
2 36986  99.2195 114.9539 0101676  57.1295 303.9607 14.02568417626764
FENGYUN 1C DEB
1 36987U 99025EBT 22084.25778444  .00000198  00000+0  31466-3 0  9995
2 36987 100.7941 201.0163 0323300  19.6435 341.6821 13.43982154426163
FENGYUN 1C DEB
1 36990U 99025EBW 22083.79265262  .00000400  00000+0  45925-3 0  9997
2 36990  96.5707 105.5197 0299906 136.2361 226.2982 13.54688703644749
FENGYUN 1C DEB
1 36994U 99025ECA 22086.92192250  .00000101  00000+0  10735-3 0  9994
2 36994  98.6297 134.3658 0117496  64.2855 297.0381 13.89987209620679
FENGYUN 1C DEB
1 36995U 99025ECB 22084.64726404 -.00000118  00000+0 -49835-4 0  9990
2 36995  98.3175  53.0488 0039100 199.3878 160.5806 14.04311961444922
FENGYUN 1C DEB
1 36996U 99025ECC 22086.95070506  .00000684  00000+0  33502-3 0  9991
2 36996  98.2757 345.5098 0281905 264.6583 103.4235 14.02211182406400
FENGYUN 1C DEB
1 36997U 99025ECD 22072.48184271  .00006895  00000+0  12779-2 0  9992
2 36997  98.5565 168.4992 0129769 328.4095  30.9360 14.60285508734103
FENGYUN 1C DEB
1 37001U 99025ECH 22060.39844972  .00001046  00000+0  58874-3 0  9997
2 37001  98.8980 122.2873 0036400 191.5490 229.9405 14.12275203713450
FENGYUN 1C DEB
1 37003U 99025ECK 22082.94106953  .00000399  00000+0  32818-3 0  9994
2 37003  98.9864 137.3129 0098487 293.8046 244.2628 13.92823970638811
FENGYUN 1C DEB
1 37006U 99025ECN 22084.55319353  .00001289  00000+0  28606-3 0  9995
2 37006  99.2782 192.1072 0300527 269.1223  87.5521 14.34954819455515
FENGYUN 1C DEB
1 37007U 99025ECP 22084.44487527  .00003933  00000+0  14202-2 0  9997
2 37007  99.1005 309.9196 0088709 117.7694 243.2517 14.31980198454895
FENGYUN 1C DEB
1 37008U 99025ECQ 22087.22680533  .00000548  00000+0  38078-3 0  9996
2 37008  99.0847 186.3310 0065271  60.3681 300.3965 14.02095510642234
FENGYUN 1C DEB
1 37011U 99025ECT 22086.83513885  .00011402  00000+0  22958-2 0  9991
2 37011  98.9101  40.8970 0062422 106.2574 254.5503 14.60471563637716
FENGYUN 1C DEB
1 37012U 99025ECU 22085.07583393  .00001557  00000+0  11193-2 0  9997
2 37012  98.6053  23.8452 0214825 131.5183 230.4629 13.87786326400623
FENGYUN 1C DEB
1 37014U 99025ECW 22086.89303555  .00003194  00000+0  14452-2 0  9990
2 37014  98.9705 155.0118 0033082 330.8092  29.1235 14.22460781627560
FENGYUN 1C DEB
1 37017U 99025ECZ 22085.50047538  .00003380  00000+0  85549-3 0  9999
2 37017  98.7339   6.9453 0352287  14.7019 346.4092 14.20339868417818
FENGYUN 1C DEB
1 37018U 99025EDA 22087.01101519  .00002614  00000+0  12277-2 0  9994
2 37018  98.5092 351.4602 0334640 202.6563 155.9533 13.95294153704980
FENGYUN 1C DEB
1 37019U 99025EDB 22086.45665531  .00000826  00000+0  31483-3 0  9995
2 37019  98.6568 170.4714 0198011 340.3496  19.0127 14.23401013454009
FENGYUN 1C DEB
1 37021U 99025EDD 22086.93581111  .00000836  00000+0  31855-3 0  9996
2 37021  98.5124 132.9305 0195548 276.9966 207.5967 14.23607970670912
FENGYUN 1C DEB
1 37022U 99025EDE 22086.20702641  .00002750  00000+0  15340-2 0  9997
2 37022  98.4709  68.0655 0147734  98.7874 328.1883 14.06255051446963
FENGYUN 1C DEB
1 37024U 99025EDG 22086.95497394  .00016837  00000+0  27180-2 0  9993
2 37024  99.3245 340.4142 0026534 210.3428 149.6239 14.71248301662636
FENGYUN 1C DEB
1 37026U 99025EDJ 22085.47300139  .00002412  00000+0  94197-3 0  9998
2 37026  98.7146 159.7860 0055530 101.0766 259.6667 14.29679928456137
FENGYUN 1C DEB
1 37028U 99025EDL 22084.80899579  .00001595  00000+0  91754-3 0  9994
2 37028  99.3281 280.9459 0039313 316.6140  43.1937 14.10410187412642
FENGYUN 1C DEB
1 37030U 99025EDN 22079.33668245  .00004364  00000+0  16470-2 0  9991
2 37030  99.7166 288.6322 0031516 269.6727  90.0841 14.31680323696092
FENGYUN 1C DEB
1 37032U 99025EDQ 22087.09453670  .00359554  00000+0  10955-1 0  9994
2 37032  99.3791 187.8052 0038667 184.8634 175.2231 15.31778713766531
FENGYUN 1C DEB
1 37035U 99025EDT 22086.51764512  .00002792  00000+0  14728-2 0  9995
2 37035 100.6306  17.1550 0061874 242.6118 116.8745 14.14013185745663
FENGYUN 1C DEB
1 37036U 99025EDU 22086.90537831 -.00000003  00000+0  24372-4 0  9993
2 37036  98.7620 121.7649 0128979 246.3023 112.4565 14.01390212738587
FENGYUN 1C DEB
1 37038U 99025EDW 22085.66883214  .00004872  00000+0  19111-2 0  9996
2 37038  99.0289 245.2632 0063879 189.6321 170.3639 14.28731238722567
FENGYUN 1C DEB
1 37040U 99025EDY 22084.50530279  .00002714  00000+0  11960-2 0  9998
2 37040  99.5413 179.4592 0084532 139.5195 221.2310 14.22426231449295
FENGYUN 1C DEB
1 37041U 99025EDZ 22074.46341520  .00001765  00000+0  11687-2 0  9993
2 37041  98.9254 312.7790 0161700 159.8051 200.9607 13.96609220379345
FENGYUN 1C DEB
1 37042U 99025EEA 22085.99124636  .00002617  00000+0  82123-3 0  9992
2 37042  98.6277 160.0505 0104346 196.1751 163.6097 14.38327647531244
FENGYUN 1C DEB
1 37043U 99025EEB 22085.55554032  .00016898  00000+0  31234-2 0  9994
2 37043  99.3299 187.6550 0070739 296.7049  62.6920 14.63861958713316
FENGYUN 1C DEB
1 37044U 99025EEC 22086.33093277  .00001115  00000+0  59860-3 0  9993
2 37044  98.9193 291.6049 0591190  80.5045 286.2372 13.50221380654502
FENGYUN 1C DEB
1 37045U 99025EED 22075.95812025  .00003059  00000+0  17299-2 0  9998
2 37045  98.3395 354.2014 0131918  70.8120 290.7273 14.06505160725505
FENGYUN 1C DEB
1 37046U 99025EEE 22086.80462710  .00000799  00000+0  40145-3 0  9992
2 37046  98.6566 121.1277 0052804 273.7163  85.7976 14.18555527449216
FENGYUN 1C DEB
1 37047U 99025EEF 22080.36875888  .00000928  00000+0  85281-3 0  9996
2 37047  99.1734 170.4162 0275614 211.8722 146.5490 13.69524283433580
FENGYUN 1C DEB
1 37048U 99025EEG 22085.13328817  .00000606  00000+0  65695-3 0  9992
2 37048  98.9292  37.9748 0258617  89.8913 285.9890 13.62877498436625
